{
  "type": "FeatureCollection",
  "features": [
    {
      "type": "Feature",
      "properties": {},
      "geometry": {
        "type": "Polygon",
        "coordinates": [
          [
            [108.312426, -6.321944],
            [108.312460, -6.322692],
            [108.312406, -6.323375],
            [108.312406, -6.323375],
            [108.312334, -6.323734],
            [108.312323, -6.324062],
            [108.312010, -6.324245],
            [108.311178, -6.324209],
            [108.309966, -6.323958],
            [108.309441, -6.326439],
            [108.309695, -6.326636],
            [108.310255, -6.327373],
            [108.310364, -6.327373],
            [108.311142, -6.327086],
            [108.312082, -6.326798],
            [108.312589, -6.326690],
            [108.313457, -6.326690],
            [108.313855, -6.326546],
            [108.313981, -6.326690],
            [108.314216, -6.327104],
            [108.314542, -6.327769],
            [108.315048, -6.328452],
            [108.315247, -6.329009],
            [108.315645, -6.329207],
            [108.317219, -6.328668],
            [108.314397, -6.322196],
            [108.312426, -6.321944]
          ]
        ]
      }
    }
  ]
}